{
  "norad_id": 65299,
  "name": "STARK",
  "history": [
    {
      "epoch": "2026-04-14T04:25:59.915136Z",
      "apogee_km": 636.4425378487922,
      "perigee_km": 623.5570971706475,
      "latitude_deg": 3.683296890437363e-05,
      "longitude_deg": -80.57233446233107,
      "height_km": 632.4957508126299,
      "semi_major_axis_km": 7008.13681750972,
      "eccentricity": 0.00091932,
      "inclination_deg": 97.9571,
      "raan_deg": 188.2921,
      "arg_perigee_deg": 274.7286,
      "mean_anomaly_deg": 85.2876,
      "mean_motion_rev_day": 14.79785966
    },
    {
      "epoch": "2026-04-15T19:22:52.457376Z",
      "apogee_km": 636.2343742093144,
      "perigee_km": 623.688476408327,
      "latitude_deg": 1.8340844221995578e-06,
      "longitude_deg": 55.21561266731536,
      "height_km": 633.2753230355997,
      "semi_major_axis_km": 7008.098425308821,
      "eccentricity": 0.0008951,
      "inclination_deg": 97.9591,
      "raan_deg": 189.8985,
      "arg_perigee_deg": 267.3798,
      "mean_anomaly_deg": 92.6389,
      "mean_motion_rev_day": 14.79798126
    },
    {
      "epoch": "2026-04-15T22:37:36.815808Z",
      "apogee_km": 636.2281649184824,
      "perigee_km": 623.6925008952194,
      "latitude_deg": 3.804563106436447e-05,
      "longitude_deg": 6.531286783444175,
      "height_km": 633.3648622837693,
      "semi_major_axis_km": 7008.097332906851,
      "eccentricity": 0.00089437,
      "inclination_deg": 97.9589,
      "raan_deg": 190.0323,
      "arg_perigee_deg": 266.5482,
      "mean_anomaly_deg": 93.4707,
      "mean_motion_rev_day": 14.79798472
    },
    {
      "epoch": "2026-04-17T16:49:11.459712Z",
      "apogee_km": 636.5868782319385,
      "perigee_km": 623.1729731947689,
      "latitude_deg": -4.0733930956754365e-05,
      "longitude_deg": 93.64724779635787,
      "height_km": 633.9891043575387,
      "semi_major_axis_km": 7008.016925713353,
      "eccentricity": 0.00095704,
      "inclination_deg": 97.9574,
      "raan_deg": 191.7754,
      "arg_perigee_deg": 260.7188,
      "mean_anomaly_deg": 99.2941,
      "mean_motion_rev_day": 14.7982394
    },
    {
      "epoch": "2026-04-18T12:17:35.973888Z",
      "apogee_km": 636.6614954724291,
      "perigee_km": 623.0288677345552,
      "latitude_deg": 5.035531810237945e-06,
      "longitude_deg": 161.54925212705885,
      "height_km": 634.4619808699563,
      "semi_major_axis_km": 7007.982181603492,
      "eccentricity": 0.00097265,
      "inclination_deg": 97.9584,
      "raan_deg": 192.5793,
      "arg_perigee_deg": 256.5174,
      "mean_anomaly_deg": 103.4954,
      "mean_motion_rev_day": 14.79834945
    },
    {
      "epoch": "2026-04-19T17:30:11.208960Z",
      "apogee_km": 636.7202904559645,
      "perigee_km": 622.7914026341705,
      "latitude_deg": -3.424832312933136e-05,
      "longitude_deg": 83.40744051970947,
      "height_km": 634.8299613455725,
      "semi_major_axis_km": 7007.892846545067,
      "eccentricity": 0.0009938,
      "inclination_deg": 97.9569,
      "raan_deg": 193.7839,
      "arg_perigee_deg": 252.9127,
      "mean_anomaly_deg": 107.0996,
      "mean_motion_rev_day": 14.79863242
    },
    {
      "epoch": "2026-04-20T11:21:11.964096Z",
      "apogee_km": 636.7189780454291,
      "perigee_km": 622.7091624997838,
      "latitude_deg": 7.196274062611565e-05,
      "longitude_deg": 175.65789590295523,
      "height_km": 635.231074097095,
      "semi_major_axis_km": 7007.851070272606,
      "eccentricity": 0.00099958,
      "inclination_deg": 97.9563,
      "raan_deg": 194.5206,
      "arg_perigee_deg": 249.1856,
      "mean_anomaly_deg": 110.8286,
      "mean_motion_rev_day": 14.79876475
    },
    {
      "epoch": "2026-04-21T18:11:06.315072Z",
      "apogee_km": 636.9115165910389,
      "perigee_km": 622.3479757391588,
      "latitude_deg": 3.179324491523988e-05,
      "longitude_deg": 73.18752037657374,
      "height_km": 635.426053451337,
      "semi_major_axis_km": 7007.766746165098,
      "eccentricity": 0.0010391,
      "inclination_deg": 97.9561,
      "raan_deg": 195.7929,
      "arg_perigee_deg": 247.6559,
      "mean_anomaly_deg": 112.3552,
      "mean_motion_rev_day": 14.79903186
    },
    {
      "epoch": "2026-04-22T12:02:05.289504Z",
      "apogee_km": 636.8965765350222,
      "perigee_km": 622.2626422482945,
      "latitude_deg": -2.857405321916216e-05,
      "longitude_deg": 165.4477383638756,
      "height_km": 635.8352996999689,
      "semi_major_axis_km": 7007.7166093916585,
      "eccentricity": 0.00104413,
      "inclination_deg": 97.9576,
      "raan_deg": 196.5319,
      "arg_perigee_deg": 243.8248,
      "mean_anomaly_deg": 116.189,
      "mean_motion_rev_day": 14.79919068
    },
    {
      "epoch": "2026-04-23T12:22:30.310176Z",
      "apogee_km": 636.9779338532317,
      "perigee_km": 622.0780963448269,
      "latitude_deg": -3.176011728021117e-05,
      "longitude_deg": 160.34846395495762,
      "height_km": 636.2512293098243,
      "semi_major_axis_km": 7007.665015099029,
      "eccentricity": 0.00106311,
      "inclination_deg": 97.9572,
      "raan_deg": 197.5365,
      "arg_perigee_deg": 240.2652,
      "mean_anomaly_deg": 119.7502,
      "mean_motion_rev_day": 14.79935412
    },
    {
      "epoch": "2026-04-24T19:12:20.449152Z",
      "apogee_km": 637.0770192804994,
      "perigee_km": 621.8439039184741,
      "latitude_deg": 3.8629829115410347e-05,
      "longitude_deg": 57.89697267532921,
      "height_km": 636.7381219145335,
      "semi_major_axis_km": 7007.597461599486,
      "eccentricity": 0.0010869,
      "inclination_deg": 97.9583,
      "raan_deg": 198.8101,
      "arg_perigee_deg": 236.0879,
      "mean_anomaly_deg": 123.93,
      "mean_motion_rev_day": 14.79956812
    },
    {
      "epoch": "2026-04-25T04:56:29.308128Z",
      "apogee_km": 637.1406527677309,
      "perigee_km": 621.6680015173997,
      "latitude_deg": 8.3351354010892e-05,
      "longitude_deg": -88.1381809920231,
      "height_km": 636.8188949937695,
      "semi_major_axis_km": 7007.541327142565,
      "eccentricity": 0.001104,
      "inclination_deg": 97.9573,
      "raan_deg": 199.2117,
      "arg_perigee_deg": 235.461,
      "mean_anomaly_deg": 124.5561,
      "mean_motion_rev_day": 14.79974595
    },
    {
      "epoch": "2026-04-26T19:53:02.563296Z",
      "apogee_km": 637.2139398981426,
      "perigee_km": 621.2913287276788,
      "latitude_deg": 3.905818955224359e-05,
      "longitude_deg": 47.729147821287555,
      "height_km": 637.2836325048303,
      "semi_major_axis_km": 7007.389634312911,
      "eccentricity": 0.00113613,
      "inclination_deg": 97.9601,
      "raan_deg": 200.8169,
      "arg_perigee_deg": 231.0703,
      "mean_anomaly_deg": 128.9497,
      "mean_motion_rev_day": 14.80022652
    },
    {
      "epoch": "2026-04-27T05:37:10.064928Z",
      "apogee_km": 637.3543835308046,
      "perigee_km": 621.0973017358938,
      "latitude_deg": -2.9809991117928487e-05,
      "longitude_deg": -98.29591848832001,
      "height_km": 637.3918251088675,
      "semi_major_axis_km": 7007.362842633349,
      "eccentricity": 0.00116,
      "inclination_deg": 97.9585,
      "raan_deg": 201.2229,
      "arg_perigee_deg": 230.8,
      "mean_anomaly_deg": 129.2182,
      "mean_motion_rev_day": 14.8003114
    },
    {
      "epoch": "2026-04-27T23:28:03.554688Z",
      "apogee_km": 636.9558983865554,
      "perigee_km": 621.3968597596613,
      "latitude_deg": 6.719990925473718e-05,
      "longitude_deg": -6.01680454328425,
      "height_km": 637.7978557765953,
      "semi_major_axis_km": 7007.313379073108,
      "eccentricity": 0.0011102,
      "inclination_deg": 97.9538,
      "raan_deg": 201.9579,
      "arg_perigee_deg": 224.0319,
      "mean_anomaly_deg": 136.001,
      "mean_motion_rev_day": 14.80046811
    },
    {
      "epoch": "2026-04-29T17:39:10.986048Z",
      "apogee_km": 637.3085178499159,
      "perigee_km": 620.7183884370543,
      "latitude_deg": -3.694750162259128e-05,
      "longitude_deg": 81.21355412940649,
      "height_km": 638.2844408734766,
      "semi_major_axis_km": 7007.150453143485,
      "eccentricity": 0.0011838,
      "inclination_deg": 97.9596,
      "raan_deg": 203.7017,
      "arg_perigee_deg": 221.1872,
      "mean_anomaly_deg": 138.8447,
      "mean_motion_rev_day": 14.80098431
    },
    {
      "epoch": "2026-04-30T05:00:37.636416Z",
      "apogee_km": 637.4139330620874,
      "perigee_km": 620.5324032449726,
      "latitude_deg": -6.284707145035822e-05,
      "longitude_deg": -89.1449174638043,
      "height_km": 638.4012809476353,
      "semi_major_axis_km": 7007.11016815353,
      "eccentricity": 0.0012046,
      "inclination_deg": 97.9576,
      "raan_deg": 204.1707,
      "arg_perigee_deg": 220.6968,
      "mean_anomaly_deg": 139.3344,
      "mean_motion_rev_day": 14.80111195
    },
    {
      "epoch": "2026-05-01T23:11:38.575680Z",
      "apogee_km": 637.6618128151695,
      "perigee_km": 619.8838811514033,
      "latitude_deg": -5.711570221898576e-05,
      "longitude_deg": -1.8845521936861054,
      "height_km": 638.8756473790093,
      "semi_major_axis_km": 7006.909846983286,
      "eccentricity": 0.0012686,
      "inclination_deg": 97.9495,
      "raan_deg": 205.9174,
      "arg_perigee_deg": 217.2693,
      "mean_anomaly_deg": 142.7639,
      "mean_motion_rev_day": 14.80174668
    }
  ]
}